ONEWEB-0395             
1 50475U 21132G   25326.32649777  .00000289  00000+0  78043-3 0  9996
2 50475  87.8860  62.2705 0001504  96.1176 264.0124 13.11418071188601
ONEWEB-0396             
1 50476U 21132H   25326.55539640 -.00000290  00000+0 -76819-3 0  9992
2 50476  87.9202  16.4919 0001784 101.0276 259.1057 13.18685505194408
ONEWEB-0397             
1 50477U 21132J   25326.19087002  .00000068  00000+0  13910-3 0  9997
2 50477  87.9204  16.5647 0001866 106.2204 253.9134 13.18685338194333
ONEWEB-0398             
1 50478U 21132K   25326.21797614 -.00000418  00000+0 -12141-2 0  9993
2 50478  87.8868  62.2627 0001551  89.8410 270.2896 13.11415382188480
ONEWEB-0399             
1 50479U 21132L   25326.20442342 -.00000055  00000+0 -19005-3 0  9992
2 50479  87.8864  62.2816 0001398 120.6252 239.5014 13.11414399188470
ONEWEB-0400             
1 50480U 21132M   25326.54880328  .00000052  00000+0  10030-3 0  9995
2 50480  87.9203  16.4835 0001830  93.5312 266.6030 13.18684505194378
ONEWEB-0401             
1 50481U 21132N   25326.51745402 -.00000060  00000+0 -18380-3 0  9993
2 50481  87.9201  16.4864 0001932 102.8425 257.2923 13.18688376194378
ONEWEB-0402             
1 50482U 21132P   25326.55704551 -.00000216  00000+0 -58061-3 0  9991
2 50482  87.9203  16.4713 0002361 110.0389 250.0998 13.18684815194402
